TIANMU-1 08             
1 57400U 23101B   26066.00237819  .00000346  00000+0  14775-4 0  9993
2 57400  97.2717 118.7901 0006380 134.2174 225.9592 15.29204229146020
STARLINK-32921          
1 62920U 25027P   26068.23068193  .00029188  00000+0  10649-2 0  9998
2 62920  42.9985 131.3284 0001420 183.4353 176.6489 15.27612444 61479
